NORAD_CAT_ID,OBJECT_NAME,OBJECT_TYPE,EPOCH,MEAN_MOTION,ECCENTRICITY,INCLINATION,RA_OF_ASC_NODE,ARG_OF_PERICENTER,MEAN_ANOMALY,BSTAR,MEAN_MOTION_DOT,MEAN_MOTION_DDOT,TLE_LINE0,TLE_LINE1,TLE_LINE2,SEMIMAJOR_AXIS,PERIOD,APOGEE,PERIGEE,DECAYED
53420.0,STARLINK-4552,PAYLOAD,2023-02-14 09:56:38,15.08839455,9.86e-05,53.2171,98.7502,121.9616,238.1472,0.00010403,1.368e-05,0.0,0 STARLINK-4552,1 53420U 22097AJ  23045.41433604  .00001368  00000-0  10403-3 0  9992,2 53420  53.2171  98.7502 0000986 121.9616 238.1472 15.08839455 29191,6917.882,95.438,540.429,539.065,0.0
53420.0,STARLINK-4552,PAYLOAD,2023-02-14 13:07:24,15.08853118,0.0001283,53.2162,98.1566,107.8331,252.2802,8.8273e-05,1.118e-05,0.0,0 STARLINK-4552,1 53420U 22097AJ  23045.54680869  .00001118  00000-0  88273-4 0  9997,2 53420  53.2162  98.1566 0001283 107.8331 252.2802 15.08853118 29672,6917.84,95.437,540.593,538.818,0.0
53420.0,STARLINK-4552,PAYLOAD,2023-02-15 06:36:39,15.08834959,0.0001119,53.2163,94.8844,106.5188,253.5927,4.7802e-05,4.73e-06,0.0,0 STARLINK-4552,1 53420U 22097AJ  23046.27546060  .00000473  00000-0  47802-4 0  9998,2 53420  53.2163  94.8844 0001119 106.5188 253.5927 15.08834959 29325,6917.896,95.438,540.535,538.987,0.0
53420.0,STARLINK-4552,PAYLOAD,2023-02-15 12:58:11,15.08850585,0.0001055,53.2162,93.6917,100.8084,259.3027,8.0769e-05,9.98e-06,0.0,0 STARLINK-4552,1 53420U 22097AJ  23046.54040966  .00000998  00000-0  80769-4 0  9993,2 53420  53.2162  93.6917 0001055 100.8084 259.3027 15.08850585 29365,6917.848,95.437,540.443,538.983,0.0
53420.0,STARLINK-4552,PAYLOAD,2023-02-16 12:48:56,15.08868581,0.0001232,53.2148,89.2342,101.864,258.249,0.0002041,2.964e-05,0.0,0 STARLINK-4552,1 53420U 22097AJ  23047.53399185  .00002964  00000-0  20410-3 0  9994,2 53420  53.2148  89.2342 0001232 101.8640 258.2490 15.08868581 29512,6917.793,95.436,540.51,538.806,0.0
53420.0,STARLINK-4552,PAYLOAD,2023-02-16 19:10:31,15.08834818,0.0001785,53.2147,88.0454,73.0146,287.1042,-5.2788e-05,-1.128e-05,0.0,0 STARLINK-4552,1 53420U 22097AJ  23047.79897582 -.00001128  00000-0 -52788-4 0  9993,2 53420  53.2147  88.0454 0001785  73.0146 287.1042 15.08834818 30013,6917.896,95.438,540.996,538.526,0.0
53420.0,STARLINK-4552,PAYLOAD,2023-02-17 09:29:00,15.08821378,0.000123,53.2179,85.3725,96.4279,263.6853,-0.00019682,-3.417e-05,0.0,0 STARLINK-4552,1 53420U 22097AJ  23048.39514548 -.00003417  00000-0 -19682-3 0  9996,2 53420  53.2179  85.3725 0001230  96.4279 263.6853 15.08821378 29643,6917.937,95.439,540.653,538.951,0.0
53420.0,STARLINK-4552,PAYLOAD,2023-02-17 19:01:19,15.08826624,9.9e-05,53.2154,83.5837,74.1852,285.9249,-0.00023395,-4.008e-05,0.0,0 STARLINK-4552,1 53420U 22097AJ  23048.79258429 -.00004008  00000-0 -23395-3 0  9996,2 53420  53.2154  83.5837 0000990  74.1852 285.9249 15.08826624 29704,6917.921,95.438,540.471,539.101,0.0
53420.0,STARLINK-4552,PAYLOAD,2023-02-18 10:55:10,15.08837775,0.000105,53.2157,80.6113,85.4887,274.6225,2.9402e-05,1.8e-06,0.0,0 STARLINK-4552,1 53420U 22097AJ  23049.45498475  .00000180  00000-0  29402-4 0  9998,2 53420  53.2157  80.6113 0001050  85.4887 274.6225 15.08837775 29802,6917.887,95.438,540.479,539.026,0.0
53420.0,STARLINK-4552,PAYLOAD,2023-02-18 12:30:33,15.08841216,0.0001045,53.2158,80.3137,86.1401,273.971,5.9273e-05,6.56e-06,0.0,0 STARLINK-4552,1 53420U 22097AJ  23049.52122336  .00000656  00000-0  59273-4 0  9993,2 53420  53.2158  80.3137 0001045  86.1401 273.9710 15.08841216 30279,6917.877,95.437,540.465,539.019,0.0
53420.0,STARLINK-4552,PAYLOAD,2023-02-19 12:21:20,15.08873551,0.0001047,53.215,75.8529,82.6802,277.4309,0.0011,0.00017278,0.0,0 STARLINK-4552,1 53420U 22097AJ  23050.51482070  .00017278  00000-0  11000-2 0  9990,2 53420  53.2150  75.8529 0001047  82.6802 277.4309 15.08873551 30420,6917.778,95.435,540.367,538.919,0.0
53420.0,STARLINK-4552,PAYLOAD,2023-02-19 13:56:43,15.08875978,0.0001056,53.2149,75.5555,82.9308,277.1804,0.0011086,0.00017417,0.0,0 STARLINK-4552,1 53420U 22097AJ  23050.58105913  .00017417  00000-0  11086-2 0  9994,2 53420  53.2149  75.5555 0001056  82.9308 277.1804 15.08875978 29978,6917.77,95.435,540.366,538.905,0.0
53420.0,STARLINK-4552,PAYLOAD,2023-02-19 18:42:52,15.08856802,4.01e-05,53.2149,74.6634,224.7014,135.3946,0.00020016,2.901e-05,0.0,0 STARLINK-4552,1 53420U 22097AJ  23050.77977636  .00002901  00000-0  20016-3 0  9990,2 53420  53.2149  74.6634 0000401 224.7014 135.3946 15.08856802 30002,6917.829,95.436,539.971,539.417,0.0
53420.0,STARLINK-4552,PAYLOAD,2023-02-20 09:01:21,15.0885277,0.0001099,53.2147,71.9869,91.3324,268.7794,0.00054176,8.348e-05,0.0,0 STARLINK-4552,1 53420U 22097AJ  23051.37594072  .00008348  00000-0  54176-3 0  9991,2 53420  53.2147  71.9869 0001099  91.3324 268.7794 15.08852770 30097,6917.841,95.437,540.467,538.946,0.0
53420.0,STARLINK-4552,PAYLOAD,2023-02-20 12:12:07,15.08860345,0.0001216,53.2147,71.3919,93.8359,266.2772,0.00080526,0.00012558,0.0,0 STARLINK-4552,1 53420U 22097AJ  23051.50841909  .00012558  00000-0  80526-3 0  9996,2 53420  53.2147  71.3919 0001216  93.8359 266.2772 15.08860345 30572,6917.818,95.436,540.524,538.842,0.0
53420.0,STARLINK-4552,PAYLOAD,2023-02-21 00:55:13,15.08840342,0.0001409,53.2146,69.0128,86.1565,273.9588,0.00058032,8.96e-05,0.0,0 STARLINK-4552,1 53420U 22097AJ  23052.03834716  .00008960  00000-0  58032-3 0  9992,2 53420  53.2146  69.0128 0001409  86.1565 273.9588 15.08840342 30198,6917.879,95.438,540.719,538.77,0.0
53420.0,STARLINK-4552,PAYLOAD,2023-02-21 12:02:55,15.08848097,0.000139,53.2148,66.9311,84.7289,275.3862,0.0013103,0.00020632,0.0,0 STARLINK-4552,1 53420U 22097AJ  23052.50202766  .00020632  00000-0  13103-2 0  9997,2 53420  53.2148  66.9311 0001390  84.7289 275.3862 15.08848097 30721,6917.856,95.437,540.682,538.759,0.0
53420.0,STARLINK-4552,PAYLOAD,2023-02-21 18:24:27,15.08845647,0.0001275,53.2151,65.7416,89.3776,270.7362,0.00079975,0.00012465,0.0,0 STARLINK-4552,1 53420U 22097AJ  23052.76698822  .00012465  00000-0  79975-3 0  9992,2 53420  53.2151  65.7416 0001275  89.3776 270.7362 15.08845647 30308,6917.863,95.437,540.61,538.846,0.0
53420.0,STARLINK-4552,PAYLOAD,2023-02-22 11:53:41,15.08859316,0.0001552,53.2156,62.4696,86.9979,273.119,0.00074684,0.00011624,0.0,0 STARLINK-4552,1 53420U 22097AJ  23053.49562338  .00011624  00000-0  74684-3 0  9993,2 53420  53.2156  62.4696 0001552  86.9979 273.1190 15.08859316 30879,6917.821,95.436,540.76,538.613,0.0
53420.0,STARLINK-4552,PAYLOAD,2023-02-23 06:58:19,15.08850009,0.0001367,53.2164,58.9013,98.7878,261.3269,0.00067145,0.00010417,0.0,0 STARLINK-4552,1 53420U 22097AJ  23054.29050676  .00010417  00000-0  67145-3 0  9992,2 53420  53.2164  58.9013 0001367  98.7878 261.3269 15.08850009 30533,6917.85,95.437,540.66,538.769,0.0
53420.0,STARLINK-4552,PAYLOAD,2023-02-23 11:44:29,15.0885432,0.0001313,53.2167,58.0092,108.2378,251.8757,0.0011472,0.00018024,0.0,0 STARLINK-4552,1 53420U 22097AJ  23054.48922651  .00018024  00000-0  11472-2 0  9997,2 53420  53.2167  58.0092 0001313 108.2378 251.8757 15.08854320 31028,6917.837,95.437,540.61,538.793,0.0
53420.0,STARLINK-4552,PAYLOAD,2023-02-24 00:27:34,15.08854973,0.0001816,53.2164,55.6289,101.1247,258.9949,0.0012088,0.0001901,0.0,0 STARLINK-4552,1 53420U 22097AJ  23055.01914760  .00019010  00000-0  12088-2 0  9999,2 53420  53.2164  55.6289 0001816 101.1247 258.9949 15.08854973 30643,6917.835,95.437,540.956,538.443,0.0
53420.0,STARLINK-4552,PAYLOAD,2023-02-24 11:35:15,15.08872782,0.0001128,53.2168,53.5495,104.0376,256.0742,0.0013201,0.00020803,0.0,0 STARLINK-4552,1 53420U 22097AJ  23055.48281920  .00020803  00000-0  13201-2 0  9995,2 53420  53.2168  53.5495 0001128 104.0376 256.0742 15.08872782 31171,6917.78,95.435,540.426,538.865,0.0
53420.0,STARLINK-4552,PAYLOAD,2023-02-24 16:21:25,15.088389,0.0001301,53.2185,52.657,88.5036,271.6105,-5.4044e-05,-1.148e-05,0.0,0 STARLINK-4552,1 53420U 22097AJ  23055.68154476 -.00001148  00000-0 -54044-4 0  9997,2 53420  53.2185  52.6570 0001301  88.5036 271.6105 15.08838900 30748,6917.884,95.438,540.649,538.849,0.0
53420.0,STARLINK-4552,PAYLOAD,2023-02-24 19:32:11,15.08840145,0.0001357,53.2172,52.0625,97.36,262.7547,3.2416e-05,2.28e-06,0.0,0 STARLINK-4552,1 53420U 22097AJ  23055.81402448  .00000228  00000-0  32416-4 0  9992,2 53420  53.2172  52.0625 0001357  97.3600 262.7547 15.08840145 31224,6917.88,95.438,540.684,538.806,0.0
53420.0,STARLINK-4552,PAYLOAD,2023-02-25 11:26:03,15.08830473,0.0001262,53.2172,49.0895,92.5726,267.541,0.00018228,2.614e-05,0.0,0 STARLINK-4552,1 53420U 22097AJ  23056.47643196  .00002614  00000-0  18228-3 0  9997,2 53420  53.2172  49.0895 0001262  92.5726 267.5410 15.08830473 30864,6917.91,95.438,540.648,538.901,0.0
53420.0,STARLINK-4552,PAYLOAD,2023-02-25 16:12:13,15.08833071,0.0001283,53.216,48.1977,98.083,262.0308,0.00012835,1.755e-05,0.0,0 STARLINK-4552,1 53420U 22097AJ  23056.67515277  .00001755  00000-0  12835-3 0  9990,2 53420  53.2160  48.1977 0001283  98.0830 262.0308 15.08833071 31350,6917.902,95.438,540.654,538.879,0.0
53420.0,STARLINK-4552,PAYLOAD,2023-02-26 03:19:54,15.08852041,0.0001236,53.2168,46.116,98.3454,261.7678,0.00081432,0.000127,0.0,0 STARLINK-4552,1 53420U 22097AJ  23057.13883086  .00012700  00000-0  81432-3 0  9999,2 53420  53.2168  46.1160 0001236  98.3454 261.7678 15.08852041 30963,6917.844,95.437,540.564,538.854,0.0
53420.0,STARLINK-4552,PAYLOAD,2023-02-26 11:16:50,15.08872149,0.0001268,53.2166,44.6291,97.2842,262.8294,0.0013403,0.00021126,0.0,0 STARLINK-4552,1 53420U 22097AJ  23057.47002562  .00021126  00000-0  13403-2 0  9992,2 53420  53.2166  44.6291 0001268  97.2842 262.8294 15.08872149 31477,6917.782,95.436,540.524,538.77,0.0
53420.0,STARLINK-4552,PAYLOAD,2023-02-27 04:46:05,15.08852492,0.0001209,53.2163,41.3583,90.3229,269.7901,0.0017767,0.00028111,0.0,0 STARLINK-4552,1 53420U 22097AJ  23058.19867092  .00028111  00000-0  17767-2 0  9997,2 53420  53.2163  41.3583 0001209  90.3229 269.7901 15.08852492 31122,6917.842,95.437,540.544,538.871,0.0
